name,state,city,street,longitude,latitude,website_url,outdoor_,food_,dog_,games_,music_,tour_
10th District Brewing Company,Massachusetts,Abington,491 Washington St,-70.94594149,42.10591754,http://www.10thdistrictbrewing.com,No,Yes,No,No,No,No
3cross Fermentation Cooperative,Massachusetts,Worcester,4 Knowlton Ave,-71.83057593,42.24364875,http://www.3cross.coop,No,Yes,No,No,Yes,No
7th Wave Brewing,Massachusetts,Medfield,120 N Meadows Rd,-71.3282767101171,42.1935755,http://www.7thwavebrewing.com,Yes,Yes,No,Yes,No,No
Aeronaut Brewing Company,Massachusetts,Somerville,14 Tyler St,-71.1062676,42.3819723,http://www.aeronautbrewing.com,Yes,Yes,No,Yes,Yes,Yes
Amherst Brewing Co / Hangar Pub and Grill,Massachusetts,Amherst,10 University Dr,-72.5318418,42.3728635,http://www.amherstbrewing.com,No,Yes,No,Yes,Yes,No
Amorys Tomb Brewing Co,Massachusetts,Maynard,76 Main St,-71.45315644,42.43203845,http://amorystomb.com,No,Yes,No,No,No,No
Anawan Brewing Company,Massachusetts,Dighton,7 Park St,-71.128681,41.86512,http://www.anawanbrewingco.com,Unknown,Unknown,Unknown,Unknown,Unknown,Unknown
Bad Martha Farmer's Brewery,Massachusetts,Edgartown,270 Upper Main St,-70.52732,41.394402,http://www.badmarthabeer.com,Yes,Yes,Yes,No,Yes,No
BareWolf Brewing,Massachusetts,Amesbury,12 Oakland St,-70.92336518,42.85606929,http://www.barewolfbrewing.com,No,Yes,Yes,Yes,Yes,No
Barnstable Brewing,Massachusetts,Hyannis,485 W Main St,-70.31159594,41.64913517,http://www.barnstablebrewing.com,Yes,Yes,Yes,Yes,No,No
Barrel House Z,Massachusetts,Weymouth,95 Woodrock Rd,-70.9278014225444,42.1925308,http://www.barrelhousez.net,Yes,Yes,No,Yes,Yes,No
Barrington Brewery and Restaurant,Massachusetts,Great Barrington,420 Stockbridge Rd,-73.3437039,42.2133283,http://www.barringtonbrewery.net,Yes,Yes,Yes,No,No,Yes
Bent Water Brewing Company,Massachusetts,Lynn,180 Commercial St,-70.9574158257149,42.45664355,http://www.bentwaterbrewing.com,Yes,Yes,No,Yes,Yes,No
Berkley Beer Company,Massachusetts,Taunton,10 Ingell St,-71.0820209443733,41.89522385,http://www.berkleybeer.com,Yes,Yes,No,No,No,No
Berkshire Brewing Co Inc,Massachusetts,South Deerfield,12 Railroad St,-72.61025086,42.47779797,http://www.Berkshire-Brewing.com,Yes,Yes,No,Yes,Yes,Yes
Big Elm Brewing,Massachusetts,Sheffield,65 Silver St,-73.351236,42.093595,http://www.bigelmbrewery.com,Yes,No,Yes,Yes,No,Yes
Bog Iron Brewing Co,Massachusetts,Norton,33 W Main St,-71.18849942,41.96658468,,Yes,Yes,No,Yes,Yes,No
Bone Up Brewing Co.,Massachusetts,Everett,38 Norman St,-71.0663396,42.405551,http://www.boneup.beer,Yes,Yes,Yes,Yes,Yes,Yes
"Brew Practitioners, LLC.",Massachusetts,Florence,36 Main St,-72.66828595,42.334563,http://www.brewpractitioners.com,Yes,Yes,Yes,No,Yes,No
Brewery Silvaticus,Massachusetts,Amesbury,9 Water St,-70.9295559,42.8573815,http://www.silvaticusbeers.com,Yes,Yes,No,No,No,No
Brick and Feather Brewery,Massachusetts,Turners Falls,78 11th St,-72.564825,42.602503,http://www.brickandfeatherbrewery.com,Yes,Yes,Yes,No,No,No
Building 8 Brewing,Massachusetts,Florence,320 Riverside Dr,-72.665272,42.3202712,,Unknown,Unknown,Unknown,Unknown,Unknown,Unknown
Buzzards Bay Brewing Co,Massachusetts,Westport,98 Horseneck Rd,-71.04970461,41.55207456,http://www.buzzardsbrew.com,Yes,Yes,Yes,Yes,Yes,No
Cambridge Brewing Co,Massachusetts,Cambridge,1 Kendall Sq,-71.0827093,42.3637754,http://www.cambridgebrewingcompany.com,Yes,Yes,Yes,No,Yes,Yes
Cape Ann Brewing Co,Massachusetts,Gloucester,11 Rogers St,-70.66509344,42.61161602,,Yes,Yes,No,Yes,Yes,Yes
Cape Ann Lanes,Massachusetts,Gloucester,53 Gloucester Ave,-70.6715187473662,42.6224113,,No,Yes,No,Yes,No,No
Cape Cod Beer,Massachusetts,Hyannis,1336 Phinneys Ln,-70.3128973,41.6763944,http://www.capecodbeer.com,Yes,Yes,Yes,Yes,Yes,Yes
Castle Island Brewing Co.,Massachusetts,Norwood,31 Astor Ave,-71.19186438,42.16931297,http://www.castleislandbeer.com,Yes,Yes,Yes,Yes,No,Yes
Cheeky Monkey Brewing Co / Lucky Strike Jillians,Massachusetts,Boston,3 Lansdowne St,-71.0946215,42.34729,http://www.cheekymonkeyboston.com,Yes,Yes,No,Yes,Yes,Yes
Cisco Brewers,Massachusetts,Nantucket,5 Bartlett Farm Rd,-70.1292845,41.26135815,http://www.ciscobrewers.com,Yes,Yes,Yes,Yes,Yes,Yes
Cold Harbor Brewing Company,Massachusetts,Westborough,108 Milk St,-71.6250358,42.2739347,http://www.coldharborbrewing.com,Yes,Yes,Yes,Yes,Yes,No
"CraftRoots Brewing, LLC.",Massachusetts,Milford,4 Industrial Rd,-71.4923164,42.1415084,http://www.craftrootsbrewing.com,Yes,Yes,Yes,No,Yes,No
Crue Brew Brewery,Massachusetts,Raynham,95 Ryan Dr,-71.0732263,41.97778085,http://www.cruebrewbrewery.com,Yes,Yes,No,No,No,No
Democracy Brewing,Massachusetts,Boston,35 Temple Pl,-71.06231578,42.35529623,http://www.democracybrewing.com,Yes,Yes,No,No,No,No
Devil's Purse Brewing Co,Massachusetts,South Dennis,120 Great Western Rd,-70.1416854,41.6885379,http://www.devilspurse.com,Yes,Yes,Yes,Yes,No,Yes
Distraction Brewing Company,Massachusetts,Roslindale,2 Belgrade Ave,-71.13016,42.286947,http://www.distractionbrewingco.com,No,Yes,No,No,No,No
Dorchester Brewing Company,Massachusetts,Dorchester,1250 Massachusetts Ave,-71.0615585,42.3204879,http://www.dorchesterbrewing.com,Yes,Yes,No,Yes,Yes,Yes
Drunken Rabbit Brewing,Massachusetts,South Hadley,749A New Ludlow Rd,-72.553245,42.217914,http://www.rabbit.beer,Yes,Yes,No,Yes,Yes,No
Element Brewing Co,Massachusetts,Millers Falls,16 Bridge St,-72.49516039,42.57950929,http://www.elementbeer.com,No,Yes,No,Yes,Yes,No
Exhibit 'A' Brewing Co.,Massachusetts,Framingham,81 Morton St,-71.40187088,42.27880435,http://www.exhibit-A-brewing.com,Yes,Yes,No,Yes,Yes,Yes
Flying Dreams Brewing Co.,Massachusetts,Worcester,455B Park Ave,-71.82618857,42.25419957,http://www.flyingdreamsbrewing.com,Yes,No,No,No,Yes,No
Fort Hill Brewery,Massachusetts,Easthampton,30 Fort Hill Rd,-72.64143098,42.28503154,http://www.forthillbrewery.com,Yes,Yes,Yes,Yes,Yes,Yes
Greasy Luck Brewery,Massachusetts,New Bedford,791 Purchase St,-70.92607527,41.63507079,http://www.greasyluckbrewery.com,No,Yes,No,No,Yes,No
Greater Good Imperial Brew Co,Massachusetts,Worcester,55 Millbrook St,-71.80355503,42.2891295,http://www.greatergoodimperials.com,Yes,Yes,Yes,Yes,Yes,No
Harpoon Brewery,Massachusetts,Boston,306 Northern Ave Ste 2,-71.0348293,42.3465637,http://www.harpoonbrewery.com,Yes,Yes,Yes,No,Yes,Yes
High Horse Brewery and Bistro,Massachusetts,Amherst,24 N Pleasant St,-72.5201343,42.376218,http://www.highhorsebrewing.com,Yes,Yes,No,Yes,Yes,No
Hitchcock Brewing Company,Massachusetts,Whately,129 Christian Ln,-72.60641222,42.44606511,http://www.hitchcockbrewing.com,Unknown,Unknown,Unknown,Unknown,Unknown,Unknown
Homefield Brewing,Massachusetts,Fiskdale,3 Arnold Rd,-72.106492436242,42.1156228179171,http://www.homefieldbrewing.com,Yes,Yes,No,No,Yes,Yes
Honest Weight Artisan Beer,Massachusetts,Orange,131 W Main St,-72.3163710237493,42.59170885,http://www.honestweightbeer.com,No,Yes,No,No,No,No
Idle Hands Craft Ales,Massachusetts,Malden,89 Commercial St,-71.07473084,42.4243819,http://www.idlehandscraftales.com,No,Yes,No,No,Yes,Yes
Independent Fermentations Brewing,Massachusetts,Plymouth,127 Camelot Dr,-70.6449136123774,41.9275641,http://www.independentfermentations.com,No,No,Yes,Yes,No,No
Ipswich Ale Brewery,Massachusetts,Ipswich,2 Brewery Place,-70.8415179756021,42.68094065,http://www.ipswichalebrewery.com,Yes,Yes,Yes,No,Yes,Yes
Iron Duke Brewing Co,Massachusetts,Ludlow,100 State St,-72.4802408576763,42.1564377195866,http://www.irondukebrewing.com,Yes,Yes,Yes,Yes,Yes,Yes
Jack's Abby Brewing,Massachusetts,Framingham,100 Clinton St,-71.4109021,42.2800852,http://www.jacksabbybrewing.com,Yes,Yes,No,No,No,Yes
Kismet Brewing Company,Massachusetts,Westfield,66 S Broad St,-72.7461088083134,42.11027585,http://www.kismetbrewing.com,Unknown,Unknown,Unknown,Unknown,Unknown,Unknown
Kretschmann Brewing Company,Massachusetts,Webster,9 Frederick St,-71.8807961,42.05004191,http://kbcbrewery.com,Yes,Yes,No,No,No,No
Lamplighter Brewing Co.,Massachusetts,Cambridge,284 Broadway,-71.0979339,42.3679737,http://www.lamplighterbrewing.com,Yes,Yes,No,Yes,No,Yes
Lefty's Brewing Co,Massachusetts,Greenfield,301 Wells St,-72.60686067,42.60121604,http://www.leftysbrew.com,Yes,No,No,No,No,No
Lookout Farm Brewing And Cider Co,Massachusetts,Natick,89 Pleasant St,-71.37096888,42.32235516,http://www.lookoutfarmbrewing.com,Yes,Yes,No,No,Yes,No
Lord Hobo Brewing Co,Massachusetts,Woburn,5 Draper St,-71.12892319,42.47603755,http://lordhobobrewing.com,Yes,Yes,No,Yes,Yes,No
Mayflower Brewing Co,Massachusetts,Plymouth,12 Resnik Rd,-70.71255496,41.94926024,http://www.mayflowerbrewing.com,Yes,Yes,Yes,No,Yes,Yes
Medusa Brewing Company,Massachusetts,Hudson,111 Main St,-71.566681,42.3909986,http://www.medusabrewing.com,Yes,Yes,No,Yes,Yes,No
Merrimack Ales,Massachusetts,Lowell,92 Bolt St,-71.300252,42.625366,http://www.merrimackales.com,No,No,No,No,No,No
Mighty Squirrel,Massachusetts,Waltham,411 Waverley Oaks Rd,-71.2031453,42.3875142,http://www.mightysquirrel.com,Yes,Yes,Yes,Yes,No,No
Moby Dick Brewing Co.,Massachusetts,New Bedford,16 S Water St,-70.92251325,41.63382101,http://www.mobydickbrewing.com,Yes,Yes,Yes,Yes,No,Yes
Mystic Brewery,Massachusetts,Chelsea,174 Williams St,-71.0445104,42.3915659,,Yes,Yes,Yes,Yes,Yes,Yes
Naukabout Brewery,Massachusetts,Mashpee,13 Lake Ave,-70.48425901,41.64936239,http://www.naukabout.com,Yes,Yes,Yes,Yes,Yes,No
Navigation Brewing Co,Massachusetts,Lowell,122 Western Ave,-71.32464812,42.64034997,http://www.navigationbrewing.com,Yes,Yes,Yes,No,Yes,No
New City Brewery,Massachusetts,Easthampton,180 Pleasant St,-72.6593256,42.2744119,,Yes,Yes,Yes,No,Yes,No
Newburyport Brewing Co,Massachusetts,Newburyport,4 New Pasture Rd,-70.88715582,42.8019577,http://www.nbptbrewing.com,Yes,Yes,Yes,Yes,Yes,Yes
"Night Shift Brewing, Inc",Massachusetts,Everett,87 Santilli Hwy,-71.0677001,42.4059393,http://www.nightshiftbrewing.com,Yes,Yes,Yes,Yes,Yes,Yes
Northampton Brewery,Massachusetts,Northampton,11 Brewster Ct,-72.6303406,42.317397,http://www.northamptonbrewery.com,Yes,Yes,No,No,Yes,No
Notch Brewing,Massachusetts,Salem,283R Derby St,-70.8898969,42.52062541,http://www.notchbrewing.com,Yes,Yes,Yes,Yes,Yes,Yes
Offshore Ale Co,Massachusetts,Oak Bluffs,30 Kennebec Ave,-70.55790959,41.45488324,http://www.offshoreale.com,Yes,Yes,No,No,Yes,Yes
Old Colony Brewing,Massachusetts,Whitman,605 Bedford St,-70.948102,42.087448,http://www.oldcolonybrew.com,No,Yes,Yes,No,No,No
Opa Opa Brewery,Massachusetts,Easthampton,19 Wemelco Way,-72.69191299,42.25467048,http://www.opaopasteakhousebrewery.com,Yes,Yes,No,No,No,No
Outlook Farm Brewery,Massachusetts,Westhampton,136 Main Rd,-72.772262,42.285973,http://www.outlookfarm.com,No,Yes,No,No,Yes,No
Owen OLearys Restaurant and Brewery,Massachusetts,Westborough,17 Connector Rd,-71.58591979,42.28996559,http://www.owenolearys.com,Yes,Yes,No,Yes,Yes,No
Percival Brewing Company,Massachusetts,Norwood,83 Morse St,-71.2072323,42.17226305,http://www.percivalbeercompany.com,Yes,Yes,Yes,Yes,Yes,No
Plymouth Beer Company / Dirty Water Distillery,Massachusetts,Plymouth,10 Water St,-70.6620267,41.9549491,http://www.plymouthbeer.rocks,No,No,Yes,No,No,Yes
Remnant Brewing,Massachusetts,Somerville,2 Bow Market Way,-71.0982412,42.3810249,http://www.remnantsomerville.com,Yes,No,No,No,No,No
River Styx Brewing,Massachusetts,Fitchburg,166 Boulder Dr Ste 112,-71.7946112,42.5817291,http://www.riverstyxbrewing.com,Yes,Yes,Yes,Yes,Yes,Yes
Second Wind Brewing Company,Massachusetts,Plymouth,7 Howland St,-70.6665478,41.9585551,http://www.secondwindbrewing.com,Unknown,Unknown,Unknown,Unknown,Unknown,Unknown
Shire Breu Hous,Massachusetts,Dalton,63 Flansburg Ave,-73.1730985,42.4745867,http://www.shire.beer,Yes,Yes,No,No,Yes,Yes
Skyroc Brewery,Massachusetts,Attleboro,11 Riverbank Rd,-71.28788917,41.94462967,http://www.skyrocbrewery.com,No,Yes,Yes,No,No,No
Spencer Brewery,Massachusetts,Spencer,167 N Spencer Rd,-72.0133159,42.2976331,http://www.spencerbrewery.com,Unknown,Unknown,Unknown,Unknown,Unknown,Unknown
Start Line Brewing Company,Massachusetts,Hopkinton,151R Hayden Rowe St,-71.51323676,42.21031634,http://www.startlinebrewing.com,Yes,Yes,No,Yes,No,Yes
Stellwagen Beer Company,Massachusetts,Marshfield,100 Enterprise Drive,-70.7480924084496,42.10365295,http://www.stellwagenbeer.com,Yes,Yes,Yes,No,No,No
Stone Cow Brewery,Massachusetts,Barre,500 West St,-72.123984,42.424354,,Yes,Yes,Yes,No,Yes,No
The Tap Brewing Company,Massachusetts,Haverhill,100 Washington St,-71.084935,42.7728879,http://www.tapbrewingcompany.com,Yes,Yes,Yes,No,Yes,Yes
Timberyard Brewing Co.,Massachusetts,East Brookfield,555 East Main St,-72.029058474949,42.23107415,http://timberyardbrewing.com,Yes,Yes,No,Yes,Yes,No
Tin Bridge Brewing,Massachusetts,Westfield,487 E Main St,-72.71967336,42.11268502,http://www.tinbridgebrewing.com,Yes,Yes,No,Yes,Yes,No
Tree House Brewery,Massachusetts,Charlton,129 Sturbridge Rd,-72.0125532,42.1366948,http://www.treehousebrew.com,Yes,Yes,Yes,Yes,Yes,No
Trillium Brewing,Massachusetts,Canton,110 Shawmut Rd,-71.1527702,42.1847202,http://www.trilliumbrewing.com,Yes,Yes,Yes,No,Yes,No
True North Ale Company,Massachusetts,Ipswich,116 County Rd,-70.837236,42.669841,http://www.TrueNorthAles.com,Yes,Yes,Yes,Yes,Yes,No
True West Brewing Company,Massachusetts,Acton,525 Massachusetts Ave,-71.4708368,42.4762337,http://www.brewtruewest.com,Yes,Yes,Yes,Yes,No,No
Turtle Swamp Brewing,Massachusetts,Jamaica Plain,3377 Washington St,-71.1123668,42.3014592,http://www.turtleswampbrewing.com,Yes,Yes,No,Yes,Yes,Yes
Untold Brewing,Massachusetts,Scituate,6 Old Country Way,-70.74750286,42.18080776,http://www.untoldbrewing.com,Yes,Yes,No,Yes,No,Yes
Vanished Valley Brewing Company,Massachusetts,Ludlow,782 Center Street,-72.47021639,42.18292741,http://www.vanishedvalley.com,Yes,Yes,No,Yes,Yes,Yes
Vitamin Sea Brewing,Massachusetts,Weymouth,30 Moore Road,-70.929302,42.1925207,,Yes,Yes,Yes,No,No,No
Wachusett Brewing Co,Massachusetts,Westminster,175 State Rd E,-71.87294016,42.55783542,http://www.wachusettbrew.com,Yes,Yes,Yes,Yes,Yes,Yes
Wandering Star Brewing Co,Massachusetts,Pittsfield,11 Gifford St,-73.21202303,42.45706449,http://www.wanderingstarbrewing.com,Yes,Yes,Yes,Yes,Yes,No
Westfield River Brewing Co,Massachusetts,Southwick,707 College Hwy,-72.765248,42.062268,http://www.westfieldriverbrewing.com,Yes,Yes,No,No,Yes,No
Widowmaker Brewing,Massachusetts,Braintree,220 Wood Rd,-71.0369456201276,42.2205924,http://www.widowmakerbrew.wordpress.com,Yes,Yes,Yes,Yes,Yes,No
Winter Hill Brewing Company,Massachusetts,Somerville,328 Broadway,-71.0939775805177,42.39265595,http://www.winterhillbrewing.com,Yes,Yes,Yes,No,No,No
Wormtown Brewery,Massachusetts,Worcester,72 Shrewsbury St,-71.7912262,42.2634992,http://www.wormtownbrewery.com,Yes,Yes,No,Yes,Yes,No
